STARLINK-2613
1 48353U 21038A   26061.20022870  .00112346  00000+0  38010-2 0  9993
2 48353  53.1573  32.9104 0000826  36.7178 323.3879 15.29747284265935
